{
  "type": "FeatureCollection",
  "features": [
    {
      "type": "Feature",
      "properties": {
        "norad_id": 35012,
        "name": "COSMOS 2251 DEB",
        "group": "cosmos-2251-debris",
        "lat": 74.01061141248435,
        "lon": -162.43579775538296,
        "alt_km": 786.1129470680771,
        "timestamp": "2025-12-15T04:01:20.847799+00:00",
        "meta_object_name": "COSMOS 2251 DEB",
        "meta_object_id": "1993-036AFZ",
        "meta_epoch": "2025-12-14T07:40:13.092672",
        "meta_mean_motion": 14.45551541,
        "meta_eccentricity": 0.00816456,
        "meta_inclination": 74.0208,
        "meta_ra_of_asc_node": 108.7882,
        "meta_arg_of_pericenter": 248.626,
        "meta_mean_anomaly": 110.6172,
        "meta_ephemeris_type": 0,
        "meta_classification_type": "U",
        "meta_norad_cat_id": 35012,
        "meta_element_set_no": 999,
        "meta_rev_at_epoch": 87584,
        "meta_bstar": 0.00024812015,
        "meta_mean_motion_dot": 8.83e-06,
        "meta_mean_motion_ddot": 0,
        "tle_line1": "1 35012U 93036AFZ 25348.31959598  .00000883  00000+0  24812-3 0  9991",
        "tle_line2": "2 35012  74.0208 108.7882 0081645 248.6260 110.6172 14.45551541875845"
      },
      "geometry": {
        "type": "Point",
        "coordinates": [
          -162.43579775538296,
          74.01061141248435
        ]
      }
    },
    {
      "type": "Feature",
      "properties": {
        "norad_id": 35014,
        "name": "COSMOS 2251 DEB",
        "group": "cosmos-2251-debris",
        "lat": 72.91159277855162,
        "lon": 149.80972547791947,
        "alt_km": 639.4058203187933,
        "timestamp": "2025-12-15T04:01:20.847809+00:00",
        "meta_object_name": "COSMOS 2251 DEB",
        "meta_object_id": "1993-036AGB",
        "meta_epoch": "2025-12-10T11:17:04.408224",
        "meta_mean_motion": 14.75108648,
        "meta_eccentricity": 0.0007489,
        "meta_inclination": 73.9993,
        "meta_ra_of_asc_node": 47.9831,
        "meta_arg_of_pericenter": 224.1256,
        "meta_mean_anomaly": 135.932,
        "meta_ephemeris_type": 0,
        "meta_classification_type": "U",
        "meta_norad_cat_id": 35014,
        "meta_element_set_no": 999,
        "meta_rev_at_epoch": 71303,
        "meta_bstar": 0.0024781418,
        "meta_mean_motion_dot": 0.00016732,
        "meta_mean_motion_ddot": 0,
        "tle_line1": "1 35014U 93036AGB 25344.47018991  .00016732  00000+0  24781-2 0  9993",
        "tle_line2": "2 35014  73.9993  47.9831 0007489 224.1256 135.9320 14.75108648713038"
      },
      "geometry": {
        "type": "Point",
        "coordinates": [
          149.80972547791947,
          72.91159277855162
        ]
      }
    },
    {
      "type": "Feature",
      "properties": {
        "norad_id": 35015,
        "name": "COSMOS 2251 DEB",
        "group": "cosmos-2251-debris",
        "lat": -54.936143945105115,
        "lon": 74.38805309291884,
        "alt_km": 782.6045143017463,
        "timestamp": "2025-12-15T04:01:20.847819+00:00",
        "meta_object_name": "COSMOS 2251 DEB",
        "meta_object_id": "1993-036AGC",
        "meta_epoch": "2025-12-08T23:19:05.687904",
        "meta_mean_motion": 14.46841193,
        "meta_eccentricity": 0.0074204,
        "meta_inclination": 73.9478,
        "meta_ra_of_asc_node": 241.8046,
        "meta_arg_of_pericenter": 111.6456,
        "meta_mean_anomaly": 265.9615,
        "meta_ephemeris_type": 0,
        "meta_classification_type": "U",
        "meta_norad_cat_id": 35015,
        "meta_element_set_no": 999,
        "meta_rev_at_epoch": 65386,
        "meta_bstar": 0.00095869,
        "meta_mean_motion_dot": 3.57e-05,
        "meta_mean_motion_ddot": 0,
        "tle_line1": "1 35015U 93036AGC 25342.97159361  .00003570  00000+0  95869-3 0  9996",
        "tle_line2": "2 35015  73.9478 241.8046 0074204 111.6456 265.9615 14.46841193653863"
      },
      "geometry": {
        "type": "Point",
        "coordinates": [
          74.38805309291884,
          -54.936143945105115
        ]
      }
    },
    {
      "type": "Feature",
      "properties": {
        "norad_id": 35016,
        "name": "COSMOS 2251 DEB",
        "group": "cosmos-2251-debris",
        "lat": 23.252560246174816,
        "lon": 102.82784973425332,
        "alt_km": 721.6867011838531,
        "timestamp": "2025-12-15T04:01:20.847829+00:00",
        "meta_object_name": "COSMOS 2251 DEB",
        "meta_object_id": "1993-036AGD",
        "meta_epoch": "2025-12-14T02:16:26.241888",
        "meta_mean_motion": 14.35063892,
        "meta_eccentricity": 0.01144313,
        "meta_inclination": 73.93,
        "meta_ra_of_asc_node": 291.9217,
        "meta_arg_of_pericenter": 208.6203,
        "meta_mean_anomaly": 167.6229,
        "meta_ephemeris_type": 0,
        "meta_classification_type": "U",
        "meta_norad_cat_id": 35016,
        "meta_element_set_no": 999,
        "meta_rev_at_epoch": 86802,
        "meta_bstar": 0.00044092962,
        "meta_mean_motion_dot": 1.326e-05,
        "meta_mean_motion_ddot": 0,
        "tle_line1": "1 35016U 93036AGD 25348.09474817  .00001326  00000+0  44093-3 0  9992",
        "tle_line2": "2 35016  73.9300 291.9217 0114431 208.6203 167.6229 14.35063892868023"
      },
      "geometry": {
        "type": "Point",
        "coordinates": [
          102.82784973425332,
          23.252560246174816
        ]
      }
    },
    {
      "type": "Feature",
      "properties": {
        "norad_id": 35018,
        "name": "COSMOS 2251 DEB",
        "group": "cosmos-2251-debris",
        "lat": 22.64395900883527,
        "lon": 112.8696594280245,
        "alt_km": 754.5697077518744,
        "timestamp": "2025-12-15T04:01:20.847839+00:00",
        "meta_object_name": "COSMOS 2251 DEB",
        "meta_object_id": "1993-036AGF",
        "meta_epoch": "2025-12-14T01:34:23.097504",
        "meta_mean_motion": 13.6711728,
        "meta_eccentricity": 0.03485759,
        "meta_inclination": 73.9758,
        "meta_ra_of_asc_node": 107.7987,
        "meta_arg_of_pericenter": 16.6862,
        "meta_mean_anomaly": 344.5383,
        "meta_ephemeris_type": 0,
        "meta_classification_type": "U",
        "meta_norad_cat_id": 35018,
        "meta_element_set_no": 999,
        "meta_rev_at_epoch": 83204,
        "meta_bstar": 0.00097087301,
        "meta_mean_motion_dot": 1.216e-05,
        "meta_mean_motion_ddot": 0,
        "tle_line1": "1 35018U 93036AGF 25348.06554511  .00001216  00000+0  97087-3 0  9990",
        "tle_line2": "2 35018  73.9758 107.7987 0348575  16.6862 344.5383 13.67117280832041"
      },
      "geometry": {
        "type": "Point",
        "coordinates": [
          112.8696594280245,
          22.64395900883527
        ]
      }
    },
    {
      "type": "Feature",
      "properties": {
        "norad_id": 35020,
        "name": "COSMOS 2251 DEB",
        "group": "cosmos-2251-debris",
        "lat": 43.35287351287768,
        "lon": -1.371222584009438,
        "alt_km": 744.1490384984918,
        "timestamp": "2025-12-15T04:01:20.847849+00:00",
        "meta_object_name": "COSMOS 2251 DEB",
        "meta_object_id": "1993-036AGH",
        "meta_epoch": "2025-12-13T23:30:11.436192",
        "meta_mean_motion": 14.62807678,
        "meta_eccentricity": 0.00911998,
        "meta_inclination": 74.0461,
        "meta_ra_of_asc_node": 196.573,
        "meta_arg_of_pericenter": 310.4261,
        "meta_mean_anomaly": 48.8974,
        "meta_ephemeris_type": 0,
        "meta_classification_type": "U",
        "meta_norad_cat_id": 35020,
        "meta_element_set_no": 999,
        "meta_rev_at_epoch": 88256,
        "meta_bstar": 0.00019069928,
        "meta_mean_motion_dot": 9.99e-06,
        "meta_mean_motion_ddot": 0,
        "tle_line1": "1 35020U 93036AGH 25347.97929903  .00000999  00000+0  19070-3 0  9996",
        "tle_line2": "2 35020  74.0461 196.5730 0091199 310.4261  48.8974 14.62807678882569"
      },
      "geometry": {
        "type": "Point",
        "coordinates": [
          -1.371222584009438,
          43.35287351287768
        ]
      }
    },
    {
      "type": "Feature",
      "properties": {
        "norad_id": 35022,
        "name": "COSMOS 2251 DEB",
        "group": "cosmos-2251-debris",
        "lat": 10.387332250575845,
        "lon": 134.28036277220693,
        "alt_km": 659.3751016311571,
        "timestamp": "2025-12-15T04:01:20.847860+00:00",
        "meta_object_name": "COSMOS 2251 DEB",
        "meta_object_id": "1993-036AGK",
        "meta_epoch": "2025-12-13T05:13:57.662400",
        "meta_mean_motion": 14.60837478,
        "meta_eccentricity": 0.0046712,
        "meta_inclination": 74.027,
        "meta_ra_of_asc_node": 321.0157,
        "meta_arg_of_pericenter": 160.7874,
        "meta_mean_anomaly": 199.5067,
        "meta_ephemeris_type": 0,
        "meta_classification_type": "U",
        "meta_norad_cat_id": 35022,
        "meta_element_set_no": 999,
        "meta_rev_at_epoch": 59150,
        "meta_bstar": 0.00067238306,
        "meta_mean_motion_dot": 3.308e-05,
        "meta_mean_motion_ddot": 0,
        "tle_line1": "1 35022U 93036AGK 25347.21802850  .00003308  00000+0  67238-3 0  9992",
        "tle_line2": "2 35022  74.0270 321.0157 0046712 160.7874 199.5067 14.60837478591501"
      },
      "geometry": {
        "type": "Point",
        "coordinates": [
          134.28036277220693,
          10.387332250575845
        ]
      }
    }
  ]
}